{"type": "FeatureCollection", "features": [{"type": "Feature", "properties": {"norad_id": 28890, "name": "BEIJING 1", "group": "dmc", "lat": -2.325859906255996, "lon": 123.18127522776064, "alt_km": 690.8057851287394, "timestamp": "2025-12-21T07:34:34.206822+00:00", "meta": {"OBJECT_NAME": "BEIJING 1", "OBJECT_ID": "2005-043A", "EPOCH": "2025-12-20T21:44:26.736864", "MEAN_MOTION": 14.63373076, "ECCENTRICITY": 0.00157079, "INCLINATION": 98.2658, "RA_OF_ASC_NODE": 122.4323, "ARG_OF_PERICENTER": 117.1853, "MEAN_ANOMALY": 243.0952, "EPHEMERIS_TYPE": 0, "CLASSIFICATION_TYPE": "U", "NORAD_CAT_ID": 28890, "ELEMENT_SET_NO": 999, "REV_AT_EPOCH": 7457, "BSTAR": 5.0610642e-05, "MEAN_MOTION_DOT": 2.13e-06, "MEAN_MOTION_DDOT": 0}, "tle": {"line1": "1 28890U 05043A   25354.90586501  .00000213  00000+0  50611-4 0  9994", "line2": "2 28890  98.2658 122.4323 0015707 117.1853 243.0952 14.63373076 74578"}}, "geometry": {"type": "Point", "coordinates": [123.18127522776064, -2.325859906255996]}}, {"type": "Feature", "properties": {"norad_id": 33320, "name": "HUANJING 1A (HJ-1A)", "group": "dmc", "lat": -75.48085610108653, "lon": 14.537557477829887, "alt_km": 624.6218655470775, "timestamp": "2025-12-21T07:34:34.206846+00:00", "meta": {"OBJECT_NAME": "HUANJING 1A (HJ-1A)", "OBJECT_ID": "2008-041A", "EPOCH": "2025-12-20T22:12:41.516928", "MEAN_MOTION": 14.83417427, "ECCENTRICITY": 0.00195178, "INCLINATION": 97.6536, "RA_OF_ASC_NODE": 342.8819, "ARG_OF_PERICENTER": 8.468, "MEAN_ANOMALY": 351.686, "EPHEMERIS_TYPE": 0, "CLASSIFICATION_TYPE": "U", "NORAD_CAT_ID": 33320, "ELEMENT_SET_NO": 999, "REV_AT_EPOCH": 93197, "BSTAR": 0.00014193845, "MEAN_MOTION_DOT": 1.117e-05, "MEAN_MOTION_DDOT": 0}, "tle": {"line1": "1 33320U 08041A   25354.92548052  .00001117  00000+0  14194-3 0  9999", "line2": "2 33320  97.6536 342.8819 0019517   8.4680 351.6860 14.83417427931972"}}, "geometry": {"type": "Point", "coordinates": [14.537557477829887, -75.48085610108653]}}, {"type": "Feature", "properties": {"norad_id": 33321, "name": "HUANJING 1B (HJ-1B)", "group": "dmc", "lat": 52.84154192567607, "lon": 177.13130725288943, "alt_km": 609.7051861642485, "timestamp": "2025-12-21T07:34:34.206857+00:00", "meta": {"OBJECT_NAME": "HUANJING 1B (HJ-1B)", "OBJECT_ID": "2008-041B", "EPOCH": "2025-12-20T22:54:50.088096", "MEAN_MOTION": 14.82842697, "ECCENTRICITY": 0.00379964, "INCLINATION": 97.6396, "RA_OF_ASC_NODE": 346.5856, "ARG_OF_PERICENTER": 49.8273, "MEAN_ANOMALY": 310.6258, "EPHEMERIS_TYPE": 0, "CLASSIFICATION_TYPE": "U", "NORAD_CAT_ID": 33321, "ELEMENT_SET_NO": 999, "REV_AT_EPOCH": 93199, "BSTAR": 0.00016256156, "MEAN_MOTION_DOT": 1.281e-05, "MEAN_MOTION_DDOT": 0}, "tle": {"line1": "1 33321U 08041B   25354.95474639  .00001281  00000+0  16256-3 0  9995", "line2": "2 33321  97.6396 346.5856 0037996  49.8273 310.6258 14.82842697931995"}}, "geometry": {"type": "Point", "coordinates": [177.13130725288943, 52.84154192567607]}}, {"type": "Feature", "properties": {"norad_id": 33446, "name": "YAOGAN-4", "group": "dmc", "lat": 33.25781321714198, "lon": -79.90675802563227, "alt_km": 620.4056264997826, "timestamp": "2025-12-21T07:34:34.206868+00:00", "meta": {"OBJECT_NAME": "YAOGAN-4", "OBJECT_ID": "2008-061A", "EPOCH": "2025-12-20T07:07:49.061568", "MEAN_MOTION": 14.82702731, "ECCENTRICITY": 0.00131175, "INCLINATION": 97.9192, "RA_OF_ASC_NODE": 284.3224, "ARG_OF_PERICENTER": 296.7402, "MEAN_ANOMALY": 63.2469, "EPHEMERIS_TYPE": 0, "CLASSIFICATION_TYPE": "U", "NORAD_CAT_ID": 33446, "ELEMENT_SET_NO": 999, "REV_AT_EPOCH": 91915, "BSTAR": 0.000123707, "MEAN_MOTION_DOT": 9.46e-06, "MEAN_MOTION_DDOT": 0}, "tle": {"line1": "1 33446U 08061A   25354.29709562  .00000946  00000+0  12371-3 0  9999", "line2": "2 33446  97.9192 284.3224 0013117 296.7402  63.2469 14.82702731919157"}}, "geometry": {"type": "Point", "coordinates": [-79.90675802563227, 33.25781321714198]}}, {"type": "Feature", "properties": {"norad_id": 35681, "name": "DEIMOS-1", "group": "dmc", "lat": -73.4378562384819, "lon": -177.36440289156366, "alt_km": 653.9833636392887, "timestamp": "2025-12-21T07:34:34.206878+00:00", "meta": {"OBJECT_NAME": "DEIMOS-1", "OBJECT_ID": "2009-041A", "EPOCH": "2025-12-20T22:08:53.752704", "MEAN_MOTION": 14.74964005, "ECCENTRICITY": 0.00025969, "INCLINATION": 97.7144, "RA_OF_ASC_NODE": 155.1448, "ARG_OF_PERICENTER": 66.1816, "MEAN_ANOMALY": 293.9666, "EPHEMERIS_TYPE": 0, "CLASSIFICATION_TYPE": "U", "NORAD_CAT_ID": 35681, "ELEMENT_SET_NO": 999, "REV_AT_EPOCH": 88060, "BSTAR": 6.74827e-05, "MEAN_MOTION_DOT": 4.06e-06, "MEAN_MOTION_DDOT": 0}, "tle": {"line1": "1 35681U 09041A   25354.92284436  .00000406  00000+0  67483-4 0  9995", "line2": "2 35681  97.7144 155.1448 0002596  66.1816 293.9666 14.74964005880608"}}, "geometry": {"type": "Point", "coordinates": [-177.36440289156366, -73.4378562384819]}}, {"type": "Feature", "properties": {"norad_id": 35683, "name": "UK-DMC 2", "group": "dmc", "lat": -39.03751450186087, "lon": 136.40475477688835, "alt_km": 650.3166256167915, "timestamp": "2025-12-21T07:34:34.206888+00:00", "meta": {"OBJECT_NAME": "UK-DMC 2", "OBJECT_ID": "2009-041C", "EPOCH": "2025-12-20T21:59:25.199232", "MEAN_MOTION": 14.75637508, "ECCENTRICITY": 0.00015207, "INCLINATION": 97.8563, "RA_OF_ASC_NODE": 129.5883, "ARG_OF_PERICENTER": 93.0028, "MEAN_ANOMALY": 267.1356, "EPHEMERIS_TYPE": 0, "CLASSIFICATION_TYPE": "U", "NORAD_CAT_ID": 35683, "ELEMENT_SET_NO": 999, "REV_AT_EPOCH": 88027, "BSTAR": 9.0437912e-05, "MEAN_MOTION_DOT": 5.68e-06, "MEAN_MOTION_DDOT": 0}, "tle": {"line1": "1 35683U 09041C   25354.91626388  .00000568  00000+0  90438-4 0  9997", "line2": "2 35683  97.8563 129.5883 0001520  93.0028 267.1356 14.75637508880272"}}, "geometry": {"type": "Point", "coordinates": [136.40475477688835, -39.03751450186087]}}, {"type": "Feature", "properties": {"norad_id": 40715, "name": "DMC3-FM1", "group": "dmc", "lat": -47.39736377623441, "lon": -129.37958281689376, "alt_km": 616.376057732471, "timestamp": "2025-12-21T07:34:34.206898+00:00", "meta": {"OBJECT_NAME": "DMC3-FM1", "OBJECT_ID": "2015-032A", "EPOCH": "2025-12-20T22:05:29.832288", "MEAN_MOTION": 14.85453257, "ECCENTRICITY": 0.00041652, "INCLINATION": 97.6689, "RA_OF_ASC_NODE": 221.8145, "ARG_OF_PERICENTER": 287.7902, "MEAN_ANOMALY": 72.2859, "EPHEMERIS_TYPE": 0, "CLASSIFICATION_TYPE": "U", "NORAD_CAT_ID": 40715, "ELEMENT_SET_NO": 999, "REV_AT_EPOCH": 56344, "BSTAR": 0.00011119048, "MEAN_MOTION_DOT": 9.07e-06, "MEAN_MOTION_DDOT": 0}, "tle": {"line1": "1 40715U 15032A   25354.92048417  .00000907  00000+0  11119-3 0  9993", "line2": "2 40715  97.6689 221.8145 0004165 287.7902  72.2859 14.85453257563447"}}, "geometry": {"type": "Point", "coordinates": [-129.37958281689376, -47.39736377623441]}}, {"type": "Feature", "properties": {"norad_id": 40716, "name": "DMC3-FM2", "group": "dmc", "lat": -11.904254620313072, "lon": 42.016481416032114, "alt_km": 617.2456978094378, "timestamp": "2025-12-21T07:34:34.206908+00:00", "meta": {"OBJECT_NAME": "DMC3-FM2", "OBJECT_ID": "2015-032B", "EPOCH": "2025-12-20T22:37:52.453344", "MEAN_MOTION": 14.8545802, "ECCENTRICITY": 0.00046836, "INCLINATION": 97.6748, "RA_OF_ASC_NODE": 223.2862, "ARG_OF_PERICENTER": 294.6908, "MEAN_ANOMALY": 65.3819, "EPHEMERIS_TYPE": 0, "CLASSIFICATION_TYPE": "U", "NORAD_CAT_ID": 40716, "ELEMENT_SET_NO": 999, "REV_AT_EPOCH": 56344, "BSTAR": 0.00017056583, "MEAN_MOTION_DOT": 1.419e-05, "MEAN_MOTION_DDOT": 0}, "tle": {"line1": "1 40716U 15032B   25354.94296821  .00001419  00000+0  17057-3 0  9996", "line2": "2 40716  97.6748 223.2862 0004683 294.6908  65.3819 14.85458020563446"}}, "geometry": {"type": "Point", "coordinates": [42.016481416032114, -11.904254620313072]}}, {"type": "Feature", "properties": {"norad_id": 40717, "name": "DMC3-FM3", "group": "dmc", "lat": 74.06155563053564, "lon": -162.9147451405964, "alt_km": 607.341632106165, "timestamp": "2025-12-21T07:34:34.206917+00:00", "meta": {"OBJECT_NAME": "DMC3-FM3", "OBJECT_ID": "2015-032C", "EPOCH": "2025-12-20T21:32:06.760608", "MEAN_MOTION": 14.85441483, "ECCENTRICITY": 0.00040933, "INCLINATION": 97.6804, "RA_OF_ASC_NODE": 224.8807, "ARG_OF_PERICENTER": 296.8577, "MEAN_ANOMALY": 63.222, "EPHEMERIS_TYPE": 0, "CLASSIFICATION_TYPE": "U", "NORAD_CAT_ID": 40717, "ELEMENT_SET_NO": 999, "REV_AT_EPOCH": 56344, "BSTAR": 4.9512973e-05, "MEAN_MOTION_DOT": 3.75e-06, "MEAN_MOTION_DDOT": 0}, "tle": {"line1": "1 40717U 15032C   25354.89730047  .00000375  00000+0  49513-4 0  9997", "line2": "2 40717  97.6804 224.8807 0004093 296.8577  63.2220 14.85441483563445"}}, "geometry": {"type": "Point", "coordinates": [-162.9147451405964, 74.06155563053564]}}]}